[{"OBJECT_NAME":"SAUDISAT 5B","OBJECT_ID":"2018-102C","EPOCH":"2026-03-09T22:59:17.457216","MEAN_MOTION":15.27248504,"ECCENTRICITY":0.00120577,"INCLINATION":97.3281,"RA_OF_ASC_NODE":135.3629,"ARG_OF_PERICENTER":124.0958,"MEAN_ANOMALY":236.1427,"EPHEMERIS_TYPE":0,"CLASSIFICATION_TYPE":"U","NORAD_CAT_ID":43833,"ELEMENT_SET_NO":999,"REV_AT_EPOCH":40064,"BSTAR":0.00024926623,"MEAN_MOTION_DOT":6.596e-5,"MEAN_MOTION_DDOT":0},{"OBJECT_NAME":"STARLINK-31478","OBJECT_ID":"2024-045L","EPOCH":"2026-03-09T10:32:16.003968","MEAN_MOTION":15.27548497,"ECCENTRICITY":7.55e-5,"INCLINATION":42.999,"RA_OF_ASC_NODE":93.8984,"ARG_OF_PERICENTER":274.2151,"MEAN_ANOMALY":85.8614,"EPHEMERIS_TYPE":0,"CLASSIFICATION_TYPE":"U","NORAD_CAT_ID":59188,"ELEMENT_SET_NO":999,"REV_AT_EPOCH":11312,"BSTAR":-0.00078154231,"MEAN_MOTION_DOT":-0.00021684,"MEAN_MOTION_DDOT":0}]
